H1 CPF 01  gfz 2022 09 07 00  7501 terrasarx 
H2 0702601  6201 31698    2022 09 07 00 59 42 2022 09 12 00 00 42   120 1 1  0 0 0
H9
10 0 59833   5742.000000  0   -2701425.231  -4883464.797   4029181.484
10 0 59833   5862.000000  0   -2587382.844  -4286297.613   4721830.555
10 0 59833   5982.000000  0   -2417041.555  -3616717.681   5331380.357
10 0 59833   6102.000000  0   -2192238.525  -2887418.357   5847138.919
10 0 59833   6222.000000  0   -1915990.974  -2112084.735   6260072.406
10 0 59833   6342.000000  0   -1592455.426  -1305132.522   6562958.340
10 0 59833   6462.000000  0   -1226863.525   -481435.868   6750506.515
10 0 59833   6582.000000  0    -825436.666    343948.672   6819443.852
10 0 59833   6702.000000  0    -395280.481   1156055.909   6768568.110
10 0 59833   6822.000000  0      55740.973   1940283.044   6598768.182
10 0 59833   6942.000000  0     519148.843   2682652.131   6313009.386
10 0 59833   7062.000000  0     986008.047   3370059.066   5916284.572
10 0 59833   7182.000000  0    1447098.192   3990507.027   5415532.409
10 0 59833   7302.000000  0    1893094.492   4533320.206   4819522.106
10 0 59833   7422.000000  0    2314756.295   4989334.189   4138705.550
10 0 59833   7542.000000  0    2703118.310   5351056.831   3385037.816
10 0 59833   7662.000000  0    3049681.189   5612799.561   2571771.478
10 0 59833   7782.000000  0    3346598.126   5770776.571   1713221.210
10 0 59833   7902.000000  0    3586849.652   5823161.866    824505.861
10 0 59833   8022.000000  0    3764403.501   5770108.399    -78724.157
10 0 59833   8142.000000  0    3874356.950   5613726.548   -980571.112
10 0 59833   8262.000000  0    3913056.071   5358022.950  -1865177.798
10 0 59833   8382.000000  0    3878190.207   5008802.148  -2717014.080
10 0 59833   8502.000000  0    3768858.139   4573532.541  -3521155.639
10 0 59833   8622.000000  0    3585604.674   4061180.692  -4263547.991
10 0 59833   8742.000000  0    3330428.393   3482020.295  -4931250.210
10 0 59833   8862.000000  0    3006760.614   2847419.934  -5512656.355
10 0 59833   8982.000000  0    2619415.759   2169614.118  -5997688.957
10 0 59833   9102.000000  0    2174515.572   1461464.252  -6377963.403
10 0 59833   9222.000000  0    1679388.839    736213.853  -6646920.642
10 0 59833   9342.000000  0    1142450.281      7243.874  -6799929.110
10 0 59833   9462.000000  0     573058.009   -712169.701  -6834357.544
10 0 59833   9582.000000  0     -18647.860  -1409092.680  -6749613.853
10 0 59833   9702.000000  0    -621920.822  -2071158.288  -6547153.260
10 0 59833   9822.000000  0   -1225598.124  -2686781.361  -6230457.556
10 0 59833   9942.000000  0   -1818302.617  -3245358.804  -5804981.447
10 0 59833  10062.000000  0   -2388652.156  -3737451.201  -5278068.088
10 0 59833  10182.000000  0   -2925475.594  -4154945.368  -4658834.948
10 0 59833  10302.000000  0   -3418031.914  -4491194.124  -3958027.043
10 0 59833  10422.000000  0   -3856226.220  -4741128.764  -3187839.764
10 0 59833  10542.000000  0   -4230819.296  -4901342.868  -2361714.043
10 0 59833  10662.000000  0   -4533625.872  -4970144.364  -1494105.364
10 0 59833  10782.000000  0   -4757696.117  -4947574.184   -600230.627
10 0 59833  10902.000000  0   -4897475.485  -4835390.482    304202.500
10 0 59833  11022.000000  0   -4948938.604  -4637018.265   1203278.727
10 0 59833  11142.000000  0   -4909692.755  -4357464.149   2081164.799
10 0 59833  11262.000000  0   -4779047.785  -4003198.553   2922397.563
10 0 59833  11382.000000  0   -4558051.465  -3582009.082   3712164.069
10 0 59833  11502.000000  0   -4249489.582  -3102829.154   4436568.524
10 0 59833  11622.000000  0   -3857849.767  -2575545.166   5082880.023
10 0 59833  11742.000000  0   -3389251.894  -2010789.058   5639754.713
10 0 59833  11862.000000  0   -2851347.883  -1419721.770   6097431.987
10 0 59833  11982.000000  0   -2253191.398   -813810.140   6447902.282
10 0 59833  12102.000000  0   -1605079.728   -204601.410   6685041.740
10 0 59833  12222.000000  0    -918372.204    396496.936   6804711.336
10 0 59833  12342.000000  0    -205290.642    978428.985   6804824.161
10 0 59833  12462.000000  0     521297.803   1530693.152   6685379.835
10 0 59833  12582.000000  0    1248112.280   2043531.735   6448464.645
10 0 59833  12702.000000  0    1961700.259   2508103.277   6098216.557
10 0 59833  12822.000000  0    2648685.721   2916635.480   5640757.885
10 0 59833  12942.000000  0    3296021.423   3262557.946   5084095.244
10 0 59833  13062.000000  0    3891240.185   3540611.372   4437984.357
10 0 59833  13182.000000  0    4422697.314   3746929.852   3713764.184
10 0 59833  13302.000000  0    4879806.324   3879097.882   2924163.396
10 0 59833  13422.000000  0    5253256.268   3936176.733   2083074.171
10 0 59833  13542.000000  0    5535206.485   3918700.057   1205305.604
10 0 59833  13662.000000  0    5719454.816   3828639.823    306316.851
10 0 59833  13782.000000  0    5801573.858   3669342.012   -598063.676
10 0 59833  13902.000000  0    5779011.236   3445434.021  -1491925.818
10 0 59833  14022.000000  0    5651152.175   3162706.202  -2359565.846
10 0 59833  14142.000000  0    5419342.456   2827971.204  -3185768.488
10 0 59833  14262.000000  0    5086873.117   2448905.084  -3956077.212
10 0 59833  14382.000000  0    4658927.179   2033873.792  -4657048.872
10 0 59833  14502.000000  0    4142487.641   1591748.674  -5276484.957
10 0 59833  14622.000000  0    3546213.978   1131717.936  -5803635.869
10 0 59833  14742.000000  0    2880288.780    663097.699  -6229378.204
10 0 59833  14862.000000  0    2156237.305    195145.851  -6546361.371
10 0 59833  14982.000000  0    1386725.830   -263116.755  -6749122.675
10 0 59833  15102.000000  0     585341.644   -703076.134  -6834173.116
10 0 59833  15222.000000  0    -233644.716  -1116683.096  -6800050.307
10 0 59833  15342.000000  0   -1055527.241  -1496596.003  -6647339.663
10 0 59833  15462.000000  0   -1865422.058  -1836307.831  -6378666.437
10 0 59833  15582.000000  0   -2648531.286  -2130256.045  -5998655.121
10 0 59833  15702.000000  0   -3390407.562  -2373912.747  -5513858.024
10 0 59833  15822.000000  0   -4077218.709  -2563855.706  -4932654.639
10 0 59833  15942.000000  0   -4696008.223  -2697817.835  -4265118.161
10 0 59833  16062.000000  0   -5234944.259  -2774713.508  -3522851.206
10 0 59833  16182.000000  0   -5683553.656  -2794641.380  -2718792.691
10 0 59833  16302.000000  0   -6032935.108  -2758862.715  -1866997.170
10 0 59833  16422.000000  0   -6275945.407  -2669755.738   -982390.563
10 0 59833  16542.000000  0   -6407354.365  -2530746.340    -80506.121
10 0 59833  16662.000000  0   -6423963.286  -2346216.455    822793.832
10 0 59833  16782.000000  0   -6324684.241  -2121392.262   1711605.267
10 0 59833  16902.000000  0   -6110575.418  -1862214.877   2570272.547
10 0 59833  17022.000000  0   -5784832.536  -1575196.872   3383672.185
10 0 59833  17142.000000  0   -5352738.714  -1267268.523   4137486.884
10 0 59833  17262.000000  0   -4821569.741   -945617.175   4818462.550
10 0 59833  17382.000000  0   -4200462.118   -617525.002   5414640.465
10 0 59833  17502.000000  0   -3500248.089   -290208.897   5915565.625
10 0 59833  17622.000000  0   -2733257.953     29335.245   6312466.866
10 0 59833  17742.000000  0   -1913095.192    334479.036   6598404.554
10 0 59833  17862.000000  0   -1054390.091    619095.479   6768385.507
10 0 59833  17982.000000  0    -172536.602    877679.977   6819444.463
10 0 59833  18102.000000  0     716583.437   1105455.407   6750691.964
10 0 59833  18222.000000  0    1596885.186   1298460.129   6563328.967
10 0 59833  18342.000000  0    2452370.834   1453617.262   6260627.000
10 0 59833  18462.000000  0    3267419.895   1568783.734   5847875.132
10 0 59833  18582.000000  0    4027076.963   1642778.808   5332293.019
10 0 59833  18702.000000  0    4717329.025   1675391.551   4722910.110
10 0 59833  18822.000000  0    5325370.117   1667368.080   4030415.313
10 0 59833  18942.000000  0    5839849.803   1620377.450   3266973.041
10 0 59833  19062.000000  0    6251093.120   1536957.024   2446009.060
10 0 59833  19182.000000  0    6551292.174   1420437.834   1581974.231
10 0 59833  19302.000000  0    6734662.781   1274852.728    690084.697
10 0 59833  19422.000000  0    6797560.899   1104829.036   -213952.858
10 0 59833  19542.000000  0    6738557.621    915468.345  -1114226.972
10 0 59833  19662.000000  0    6558467.233    712215.898  -1994910.590
10 0 59833  19782.000000  0    6260331.252    500723.181  -2840546.095
10 0 59833  19902.000000  0    5849358.345    286708.466  -3636322.021
10 0 59833  20022.000000  0    5332821.993     75818.183  -4368335.080
10 0 59833  20142.000000  0    4719917.817   -126507.521  -5023831.407
10 0 59833  20262.000000  0    4021587.376   -315161.375  -5591421.863
10 0 59833  20382.000000  0    3250313.687   -485485.235  -6061271.412
10 0 59833  20502.000000  0    2419890.654   -633374.367  -6425259.969
10 0 59833  20622.000000  0    1545172.194   -755366.628  -6677110.427
10 0 59833  20742.000000  0     641807.948   -848716.461  -6812486.518
10 0 59833  20862.000000  0    -274033.639   -911451.606  -6829060.031
10 0 59833  20982.000000  0   -1185948.460   -942411.756  -6726545.516
10 0 59833  21102.000000  0   -2077583.634   -941269.437  -6506705.313
10 0 59833  21222.000000  0   -2932924.561   -908532.100  -6173321.559
10 0 59833  21342.000000  0   -3736575.715   -845526.056  -5732137.764
10 0 59833  21462.000000  0   -4474036.042   -754362.355  -5190771.578
10 0 59833  21582.000000  0   -5131962.977   -637884.475  -4558594.153
10 0 59833  21702.000000  0   -5698419.101   -499599.446  -3846579.460
10 0 59833  21822.000000  0   -6163098.773   -343593.011  -3067123.863
10 0 59833  21942.000000  0   -6517527.498   -174429.579  -2233836.547
10 0 59833  22062.000000  0   -6755229.719      2959.483  -1361305.542
10 0 59833  22182.000000  0   -6871861.211    183398.690   -464841.001
99
